STARLINK-5325           
1 55292U 23010Z   25230.56231898 -.00005595  00000+0 -46109-3 0  9991
2 55292  70.0002 176.5710 0003464 272.8107  87.2656 14.98361320142845
STARLINK-5287           
1 55293U 23010AA  25230.56649435 -.00003347  00000+0 -27269-3 0  9991
2 55293  70.0004 176.5866 0002912 275.9005  84.1823 14.98347530142847
STARLINK-5286           
1 55294U 23010AB  25230.30385669  .00000867  00000+0  80405-4 0  9994
2 55294  70.0000 197.1394 0003385 268.9126  91.1645 14.98342748142318
STARLINK-5293           
1 55295U 23010AC  25230.34559699 -.00000215  00000+0 -10246-4 0  9990
2 55295  69.9994 197.2906 0003369 266.8633  93.2140 14.98329467142327
STARLINK-5285           
1 55296U 23010AD  25230.54980106 -.00000058  00000+0  29206-5 0  9995
2 55296  69.9989 176.5259 0003264 275.0438  85.0348 14.98328437143722
STARLINK-5284           
1 55297U 23010AE  25230.55814959 -.00000192  00000+0 -82730-5 0  9990
2 55297  70.0003 176.5561 0003223 269.4921  90.5868 14.98330530142845
STARLINK-5270           
1 55299U 23010AG  25230.27860520 -.00000363  00000+0 -22605-4 0  9990
2 55299  70.0002 177.1879 0002921 270.6220  89.4604 14.98324159143683
STARLINK-5308           
1 55300U 23010AH  25230.27443696 -.00001907  00000+0 -15218-3 0  9990
2 55300  70.0004 177.1713 0002774 271.5229  88.5612 14.98310743142806
STARLINK-5321           
1 55302U 23010AK  25230.55397577  .00000317  00000+0  34357-4 0  9997
2 55302  70.0000 176.5395 0003354 265.2670  94.8106 14.98330989142844
STARLINK-5322           
1 55303U 23010AL  25230.22457125 -.00000631  00000+0 -45083-4 0  9997
2 55303  70.0002 197.2645 0003602 268.7642  91.3104 14.98334256142300
STARLINK-5318           
1 55304U 23010AM  25230.27025458  .00001042  00000+0  95072-4 0  9991
2 55304  70.0004 177.1559 0002896 270.4354  89.6473 14.98329396142801
STARLINK-5316           
1 55305U 23010AN  25230.26609100  .00000232  00000+0  27209-4 0  9990
2 55305  70.0003 177.5472 0003438 265.1181  94.9586 14.98331292142803
STARLINK-5295           
1 55306U 23010AP  25230.50370421  .00001954  00000+0  17149-3 0  9992
2 55306  69.9997 156.8964 0002885 272.2635  87.8193 14.98329016143332
STARLINK-5288           
1 55307U 23010AQ  25230.24082117  .00000296  00000+0  32562-4 0  9991
2 55307  70.0007 157.5855 0002831 270.1793  89.9041 14.98334225143296
STARLINK-5315           
1 55309U 23010AS  25230.52453347 -.00000121  00000+0 -23132-5 0  9994
2 55309  70.0005 156.5675 0003115 269.9294  90.1508 14.98330290143035
STARLINK-5309           
1 55310U 23010AT  25230.49534107  .00000225  00000+0  26667-4 0  9994
2 55310  70.0009 156.8663 0002866 271.6212  88.4619 14.98330156143330
STARLINK-5312           
1 55311U 23010AU  25230.49951568  .00000239  00000+0  27787-4 0  9998
2 55311  70.0008 156.8819 0002801 271.2017  88.8821 14.98331362144207
