[{"OBJECT_NAME":"STARLINK-5325","OBJECT_ID":"2023-010Z","EPOCH":"2025-08-18T13:29:44.359872","MEAN_MOTION":14.9836132,"ECCENTRICITY":0.0003464,"INCLINATION":70.0002,"RA_OF_ASC_NODE":176.571,"ARG_OF_PERICENTER":272.8107,"MEAN_ANOMALY":87.2656,"EPHEMERIS_TYPE":0,"CLASSIFICATION_TYPE":"U","NORAD_CAT_ID":55292,"ELEMENT_SET_NO":999,"REV_AT_EPOCH":14284,"BSTAR":-0.00046109,"MEAN_MOTION_DOT":-5.595e-5,"MEAN_MOTION_DDOT":0},{"OBJECT_NAME":"STARLINK-5287","OBJECT_ID":"2023-010AA","EPOCH":"2025-08-18T13:35:45.111840","MEAN_MOTION":14.9834753,"ECCENTRICITY":0.0002912,"INCLINATION":70.0004,"RA_OF_ASC_NODE":176.5866,"ARG_OF_PERICENTER":275.9005,"MEAN_ANOMALY":84.1823,"EPHEMERIS_TYPE":0,"CLASSIFICATION_TYPE":"U","NORAD_CAT_ID":55293,"ELEMENT_SET_NO":999,"REV_AT_EPOCH":14284,"BSTAR":-0.00027269,"MEAN_MOTION_DOT":-3.347e-5,"MEAN_MOTION_DDOT":0},{"OBJECT_NAME":"STARLINK-5286","OBJECT_ID":"2023-010AB","EPOCH":"2025-08-18T07:17:33.218016","MEAN_MOTION":14.98342748,"ECCENTRICITY":0.0003385,"INCLINATION":70,"RA_OF_ASC_NODE":197.1394,"ARG_OF_PERICENTER":268.9126,"MEAN_ANOMALY":91.1645,"EPHEMERIS_TYPE":0,"CLASSIFICATION_TYPE":"U","NORAD_CAT_ID":55294,"ELEMENT_SET_NO":999,"REV_AT_EPOCH":14231,"BSTAR":8.0405e-5,"MEAN_MOTION_DOT":8.67e-6,"MEAN_MOTION_DDOT":0},{"OBJECT_NAME":"STARLINK-5293","OBJECT_ID":"2023-010AC","EPOCH":"2025-08-18T08:17:39.579936","MEAN_MOTION":14.98329467,"ECCENTRICITY":0.0003369,"INCLINATION":69.9994,"RA_OF_ASC_NODE":197.2906,"ARG_OF_PERICENTER":266.8633,"MEAN_ANOMALY":93.214,"EPHEMERIS_TYPE":0,"CLASSIFICATION_TYPE":"U","NORAD_CAT_ID":55295,"ELEMENT_SET_NO":999,"REV_AT_EPOCH":14232,"BSTAR":-1.0246e-5,"MEAN_MOTION_DOT":-2.15e-6,"MEAN_MOTION_DDOT":0},{"OBJECT_NAME":"STARLINK-5285","OBJECT_ID":"2023-010AD","EPOCH":"2025-08-18T13:11:42.811584","MEAN_MOTION":14.98328437,"ECCENTRICITY":0.0003264,"INCLINATION":69.9989,"RA_OF_ASC_NODE":176.5259,"ARG_OF_PERICENTER":275.0438,"MEAN_ANOMALY":85.0348,"EPHEMERIS_TYPE":0,"CLASSIFICATION_TYPE":"U","NORAD_CAT_ID":55296,"ELEMENT_SET_NO":999,"REV_AT_EPOCH":14372,"BSTAR":2.9206e-6,"MEAN_MOTION_DOT":-5.8e-7,"MEAN_MOTION_DDOT":0},{"OBJECT_NAME":"STARLINK-5284","OBJECT_ID":"2023-010AE","EPOCH":"2025-08-18T13:23:44.124576","MEAN_MOTION":14.9833053,"ECCENTRICITY":0.0003223,"INCLINATION":70.0003,"RA_OF_ASC_NODE":176.5561,"ARG_OF_PERICENTER":269.4921,"MEAN_ANOMALY":90.5868,"EPHEMERIS_TYPE":0,"CLASSIFICATION_TYPE":"U","NORAD_CAT_ID":55297,"ELEMENT_SET_NO":999,"REV_AT_EPOCH":14284,"BSTAR":-8.273e-6,"MEAN_MOTION_DOT":-1.92e-6,"MEAN_MOTION_DDOT":0},{"OBJECT_NAME":"STARLINK-5270","OBJECT_ID":"2023-010AG","EPOCH":"2025-08-18T06:41:11.489280","MEAN_MOTION":14.98324159,"ECCENTRICITY":0.0002921,"INCLINATION":70.0002,"RA_OF_ASC_NODE":177.1879,"ARG_OF_PERICENTER":270.622,"MEAN_ANOMALY":89.4604,"EPHEMERIS_TYPE":0,"CLASSIFICATION_TYPE":"U","NORAD_CAT_ID":55299,"ELEMENT_SET_NO":999,"REV_AT_EPOCH":14368,"BSTAR":-2.2605e-5,"MEAN_MOTION_DOT":-3.63e-6,"MEAN_MOTION_DDOT":0},{"OBJECT_NAME":"STARLINK-5308","OBJECT_ID":"2023-010AH","EPOCH":"2025-08-18T06:35:11.353344","MEAN_MOTION":14.98310743,"ECCENTRICITY":0.0002774,"INCLINATION":70.0004,"RA_OF_ASC_NODE":177.1713,"ARG_OF_PERICENTER":271.5229,"MEAN_ANOMALY":88.5612,"EPHEMERIS_TYPE":0,"CLASSIFICATION_TYPE":"U","NORAD_CAT_ID":55300,"ELEMENT_SET_NO":999,"REV_AT_EPOCH":14280,"BSTAR":-0.00015218,"MEAN_MOTION_DOT":-1.907e-5,"MEAN_MOTION_DDOT":0},{"OBJECT_NAME":"STARLINK-5321","OBJECT_ID":"2023-010AK","EPOCH":"2025-08-18T13:17:43.506528","MEAN_MOTION":14.98330989,"ECCENTRICITY":0.0003354,"INCLINATION":70,"RA_OF_ASC_NODE":176.5395,"ARG_OF_PERICENTER":265.267,"MEAN_ANOMALY":94.8106,"EPHEMERIS_TYPE":0,"CLASSIFICATION_TYPE":"U","NORAD_CAT_ID":55302,"ELEMENT_SET_NO":999,"REV_AT_EPOCH":14284,"BSTAR":3.4357e-5,"MEAN_MOTION_DOT":3.17e-6,"MEAN_MOTION_DDOT":0},{"OBJECT_NAME":"STARLINK-5322","OBJECT_ID":"2023-010AL","EPOCH":"2025-08-18T05:23:22.956000","MEAN_MOTION":14.98334256,"ECCENTRICITY":0.0003602,"INCLINATION":70.0002,"RA_OF_ASC_NODE":197.2645,"ARG_OF_PERICENTER":268.7642,"MEAN_ANOMALY":91.3104,"EPHEMERIS_TYPE":0,"CLASSIFICATION_TYPE":"U","NORAD_CAT_ID":55303,"ELEMENT_SET_NO":999,"REV_AT_EPOCH":14230,"BSTAR":-4.5083e-5,"MEAN_MOTION_DOT":-6.31e-6,"MEAN_MOTION_DDOT":0},{"OBJECT_NAME":"STARLINK-5318","OBJECT_ID":"2023-010AM","EPOCH":"2025-08-18T06:29:09.995712","MEAN_MOTION":14.98329396,"ECCENTRICITY":0.0002896,"INCLINATION":70.0004,"RA_OF_ASC_NODE":177.1559,"ARG_OF_PERICENTER":270.4354,"MEAN_ANOMALY":89.6473,"EPHEMERIS_TYPE":0,"CLASSIFICATION_TYPE":"U","NORAD_CAT_ID":55304,"ELEMENT_SET_NO":999,"REV_AT_EPOCH":14280,"BSTAR":9.5072e-5,"MEAN_MOTION_DOT":1.042e-5,"MEAN_MOTION_DDOT":0},{"OBJECT_NAME":"STARLINK-5316","OBJECT_ID":"2023-010AN","EPOCH":"2025-08-18T06:23:10.262400","MEAN_MOTION":14.98331292,"ECCENTRICITY":0.0003438,"INCLINATION":70.0003,"RA_OF_ASC_NODE":177.5472,"ARG_OF_PERICENTER":265.1181,"MEAN_ANOMALY":94.9586,"EPHEMERIS_TYPE":0,"CLASSIFICATION_TYPE":"U","NORAD_CAT_ID":55305,"ELEMENT_SET_NO":999,"REV_AT_EPOCH":14280,"BSTAR":2.7209e-5,"MEAN_MOTION_DOT":2.32e-6,"MEAN_MOTION_DDOT":0},{"OBJECT_NAME":"STARLINK-5295","OBJECT_ID":"2023-010AP","EPOCH":"2025-08-18T12:05:20.043744","MEAN_MOTION":14.98329016,"ECCENTRICITY":0.0002885,"INCLINATION":69.9997,"RA_OF_ASC_NODE":156.8964,"ARG_OF_PERICENTER":272.2635,"MEAN_ANOMALY":87.8193,"EPHEMERIS_TYPE":0,"CLASSIFICATION_TYPE":"U","NORAD_CAT_ID":55306,"ELEMENT_SET_NO":999,"REV_AT_EPOCH":14333,"BSTAR":0.00017149,"MEAN_MOTION_DOT":1.954e-5,"MEAN_MOTION_DDOT":0},{"OBJECT_NAME":"STARLINK-5288","OBJECT_ID":"2023-010AQ","EPOCH":"2025-08-18T05:46:46.949088","MEAN_MOTION":14.98334225,"ECCENTRICITY":0.0002831,"INCLINATION":70.0007,"RA_OF_ASC_NODE":157.5855,"ARG_OF_PERICENTER":270.1793,"MEAN_ANOMALY":89.9041,"EPHEMERIS_TYPE":0,"CLASSIFICATION_TYPE":"U","NORAD_CAT_ID":55307,"ELEMENT_SET_NO":999,"REV_AT_EPOCH":14329,"BSTAR":3.2562e-5,"MEAN_MOTION_DOT":2.96e-6,"MEAN_MOTION_DDOT":0},{"OBJECT_NAME":"STARLINK-5315","OBJECT_ID":"2023-010AS","EPOCH":"2025-08-18T12:35:19.691808","MEAN_MOTION":14.9833029,"ECCENTRICITY":0.0003115,"INCLINATION":70.0005,"RA_OF_ASC_NODE":156.5675,"ARG_OF_PERICENTER":269.9294,"MEAN_ANOMALY":90.1508,"EPHEMERIS_TYPE":0,"CLASSIFICATION_TYPE":"U","NORAD_CAT_ID":55309,"ELEMENT_SET_NO":999,"REV_AT_EPOCH":14303,"BSTAR":-2.3132e-6,"MEAN_MOTION_DOT":-1.21e-6,"MEAN_MOTION_DDOT":0},{"OBJECT_NAME":"STARLINK-5309","OBJECT_ID":"2023-010AT","EPOCH":"2025-08-18T11:53:17.468448","MEAN_MOTION":14.98330156,"ECCENTRICITY":0.0002866,"INCLINATION":70.0009,"RA_OF_ASC_NODE":156.8663,"ARG_OF_PERICENTER":271.6212,"MEAN_ANOMALY":88.4619,"EPHEMERIS_TYPE":0,"CLASSIFICATION_TYPE":"U","NORAD_CAT_ID":55310,"ELEMENT_SET_NO":999,"REV_AT_EPOCH":14333,"BSTAR":2.6667e-5,"MEAN_MOTION_DOT":2.25e-6,"MEAN_MOTION_DDOT":0},{"OBJECT_NAME":"STARLINK-5312","OBJECT_ID":"2023-010AU","EPOCH":"2025-08-18T11:59:18.154752","MEAN_MOTION":14.98331362,"ECCENTRICITY":0.0002801,"INCLINATION":70.0008,"RA_OF_ASC_NODE":156.8819,"ARG_OF_PERICENTER":271.2017,"MEAN_ANOMALY":88.8821,"EPHEMERIS_TYPE":0,"CLASSIFICATION_TYPE":"U","NORAD_CAT_ID":55311,"ELEMENT_SET_NO":999,"REV_AT_EPOCH":14420,"BSTAR":2.7787e-5,"MEAN_MOTION_DOT":2.39e-6,"MEAN_MOTION_DDOT":0}]
